QIANFAN-97              
1 66039U 25233G   25312.44265278  .00000935  00000+0  38442-3 0  9990
2 66039  88.9954  65.9785 0015954 143.6758 216.5521 14.26168724  3159
QIANFAN-98              
1 66040U 25233H   25312.51251172  .00000935  00000+0  38410-3 0  9993
2 66040  88.9955  65.9705 0015591 142.2654 217.9636 14.26190270  3165
QIANFAN-99              
1 66041U 25233J   25312.51234144  .00000924  00000+0  37923-3 0  9990
2 66041  88.9954  65.9704 0015723 141.4056 218.8264 14.26205739  3162
QIANFAN-100             
1 66042U 25233K   25312.51222797  .00000925  00000+0  37967-3 0  9991
2 66042  88.9955  65.9705 0016181 142.9836 217.2477 14.26221292  3167
QIANFAN-101             
1 66043U 25233L   25312.43858648  .00000528  00000+0  21225-3 0  9992
2 66043  88.9955  65.9779 0016159 141.3965 218.8387 14.26638967  3157
QIANFAN-102             
1 66044U 25233M   25312.44195164  .00000960  00000+0  39429-3 0  9996
2 66044  88.9954  65.9784 0016546 143.2840 216.9491 14.26225623  3152
QIANFAN-103             
1 66045U 25233N   25312.51174309  .00000957  00000+0  39268-3 0  9990
2 66045  88.9955  65.9705 0015932 141.9084 218.3239 14.26254963  3166
QIANFAN-104             
1 66046U 25233P   25312.51147425  .00000959  00000+0  39330-3 0  9992
2 66046  88.9955  65.9705 0015921 144.1287 216.0979 14.26275715  3169
